NORAD_CAT_ID,OBJECT_NAME,OBJECT_TYPE,EPOCH,MEAN_MOTION,ECCENTRICITY,INCLINATION,RA_OF_ASC_NODE,ARG_OF_PERICENTER,MEAN_ANOMALY,BSTAR,MEAN_MOTION_DOT,MEAN_MOTION_DDOT,TLE_LINE0,TLE_LINE1,TLE_LINE2,SEMIMAJOR_AXIS,PERIOD,APOGEE,PERIGEE,DECAYED
53430.0,STARLINK-4538,PAYLOAD,2024-03-04 13:26:08,15.08880072,0.0001486,53.2157,164.2835,71.5936,288.5217,0.0012906,0.00020334,0.0,0 STARLINK-4538,1 53430U 22097AU  24064.55982630  .00020334  00000-0  12906-2 0  9991,2 53430  53.2157 164.2835 0001486  71.5936 288.5217 15.08880072 87321,6917.758,95.435,540.651,538.595,0.0
53430.0,STARLINK-4538,PAYLOAD,2024-03-05 13:16:57,15.08810779,0.0001383,53.216,159.8255,98.5178,261.5971,0.0011368,0.00017836,0.0,0 STARLINK-4538,1 53430U 22097AU  24065.55344107  .00017836  00000-0  11368-2 0  9997,2 53430  53.2160 159.8255 0001383  98.5178 261.5971 15.08810779 87936,6917.97,95.439,540.791,538.878,0.0
53430.0,STARLINK-4538,PAYLOAD,2024-03-05 18:03:06,15.08820859,0.0001364,53.2157,158.9322,92.719,267.3959,0.0013631,0.00021461,0.0,0 STARLINK-4538,1 53430U 22097AU  24065.75216382  .00021461  00000-0  13631-2 0  9996,2 53430  53.2157 158.9322 0001364  92.7190 267.3959 15.08820859 87509,6917.939,95.439,540.748,538.86,0.0
53430.0,STARLINK-4538,PAYLOAD,2024-03-06 11:32:21,15.08858556,0.0001426,53.216,155.6621,95.573,264.5425,0.0014663,0.00023137,0.0,0 STARLINK-4538,1 53430U 22097AU  24066.48080235  .00023137  00000-0  14663-2 0  9991,2 53430  53.2160 155.6621 0001426  95.5730 264.5425 15.08858556 88074,6917.824,95.436,540.675,538.702,0.0
53430.0,STARLINK-4538,PAYLOAD,2024-03-07 12:58:31,15.08840486,0.0001483,53.2157,150.9066,109.8735,250.2417,-1.0672e-05,-4.58e-06,0.0,0 STARLINK-4538,1 53430U 22097AU  24067.54064027 -.00000458  00000-0 -10672-4 0  9991,2 53430  53.2157 150.9066 0001483 109.8735 250.2417 15.08840486 88232,6917.879,95.438,540.77,538.718,0.0
53430.0,STARLINK-4538,PAYLOAD,2024-03-08 11:13:55,15.08840929,0.0001501,53.2159,146.7396,93.5903,266.526,1.449e-06,-2.65e-06,0.0,0 STARLINK-4538,1 53430U 22097AU  24068.46800480 -.00000265  00000-0  14490-5 0  9992,2 53430  53.2159 146.7396 0001501  93.5903 266.5260 15.08840929 88373,6917.878,95.437,540.781,538.704,0.0
53430.0,STARLINK-4538,PAYLOAD,2024-03-09 04:43:10,15.08834007,0.0001886,53.2155,143.4698,87.388,272.7328,0.00011258,1.504e-05,0.0,0 STARLINK-4538,1 53430U 22097AU  24069.19664875  .00001504  00000-0  11258-3 0  9992,2 53430  53.2155 143.4698 0001886  87.3880 272.7328 15.08834007 88025,6917.899,95.438,541.068,538.459,0.0
53430.0,STARLINK-4538,PAYLOAD,2024-03-09 11:04:43,15.08833016,0.0001404,53.2149,142.2803,89.4419,270.6734,9.5149e-05,1.226e-05,0.0,0 STARLINK-4538,1 53430U 22097AU  24069.46160979  .00001226  00000-0  95149-4 0  9991,2 53430  53.2149 142.2803 0001404  89.4419 270.6734 15.08833016 88522,6917.902,95.438,540.738,538.795,0.0
53430.0,STARLINK-4538,PAYLOAD,2024-03-09 22:12:24,15.0884334,0.0001625,53.2144,140.1963,94.8428,265.275,0.00020962,3.05e-05,0.0,0 STARLINK-4538,1 53430U 22097AU  24069.92528519  .00003050  00000-0  20962-3 0  9997,2 53430  53.2144 140.1963 0001625  94.8428 265.2750 15.08843340 88592,6917.87,95.437,540.859,538.611,0.0
53430.0,STARLINK-4538,PAYLOAD,2024-03-10 10:55:29,15.08840474,0.0001833,53.2156,137.8156,98.7854,261.3346,4.515e-05,4.31e-06,0.0,0 STARLINK-4538,1 53430U 22097AU  24070.45520824  .00000431  00000-0  45150-4 0  9995,2 53430  53.2156 137.8156 0001833  98.7854 261.3346 15.08840474 88211,6917.879,95.438,541.012,538.476,0.0
53430.0,STARLINK-4538,PAYLOAD,2024-03-10 14:06:16,15.08838709,0.0001817,53.2174,137.2207,100.5449,259.5747,3.1896e-05,2.2e-06,0.0,0 STARLINK-4538,1 53430U 22097AU  24070.58768937  .00000220  00000-0  31896-4 0  9996,2 53430  53.2174 137.2207 0001817 100.5449 259.5747 15.08838709 88690,6917.884,95.438,541.006,538.492,0.0
53430.0,STARLINK-4538,PAYLOAD,2024-03-11 10:46:17,15.08819544,0.0001743,53.2184,133.3549,110.1806,249.9374,0.00042134,6.42e-05,0.0,0 STARLINK-4538,1 53430U 22097AU  24071.44881291  .00006420  00000-0  42134-3 0  9995,2 53430  53.2184 133.3549 0001743 110.1806 249.9374 15.08819544 88368,6917.943,95.439,541.014,538.602,0.0
53430.0,STARLINK-4538,PAYLOAD,2024-03-12 04:15:31,15.08838864,0.0001591,53.2172,130.0851,99.526,260.5912,0.00012335,1.676e-05,0.0,0 STARLINK-4538,1 53430U 22097AU  24072.17744654  .00001676  00000-0  12335-3 0  9995,2 53430  53.2172 130.0851 0001591  99.5260 260.5912 15.08838864 88475,6917.884,95.438,540.849,538.648,0.0
53430.0,STARLINK-4538,PAYLOAD,2024-03-12 20:09:22,15.08846977,0.0001504,53.2172,127.1129,94.3714,265.745,0.00011028,1.468e-05,0.0,0 STARLINK-4538,1 53430U 22097AU  24072.83984158  .00001468  00000-0  11028-3 0  9990,2 53430  53.2172 127.1129 0001504  94.3714 265.7450 15.08846977 89032,6917.859,95.437,540.765,538.684,0.0
53430.0,STARLINK-4538,PAYLOAD,2024-03-13 10:27:51,15.08834137,0.0001523,53.2174,124.4385,95.0438,265.0728,9.0799e-06,-1.43e-06,0.0,0 STARLINK-4538,1 53430U 22097AU  24073.43601318 -.00000143  00000-0  90799-5 0  9995,2 53430  53.2174 124.4385 0001523  95.0438 265.0728 15.08834137 88664,6917.898,95.438,540.817,538.71,0.0
53430.0,STARLINK-4538,PAYLOAD,2024-03-13 13:38:37,15.08837348,0.0001532,53.2174,123.843,96.5491,263.5676,3.555e-05,2.78e-06,0.0,0 STARLINK-4538,1 53430U 22097AU  24073.56849105  .00000278  00000-0  35550-4 0  9998,2 53430  53.2174 123.8430 0001532  96.5491 263.5676 15.08837348 89149,6917.888,95.438,540.813,538.694,0.0
53430.0,STARLINK-4538,PAYLOAD,2024-03-13 20:00:09,15.08843683,0.0001513,53.2174,122.6538,95.1877,264.9288,8.0103e-05,9.87e-06,0.0,0 STARLINK-4538,1 53430U 22097AU  24073.83344584  .00000987  00000-0  80103-4 0  9990,2 53430  53.2174 122.6538 0001513  95.1877 264.9288 15.08843683 88723,6917.869,95.437,540.781,538.687,0.0
53430.0,STARLINK-4538,PAYLOAD,2024-03-14 02:21:42,15.08838045,0.0001592,53.2173,121.4654,99.8144,260.3028,8.3843e-05,1.047e-05,0.0,0 STARLINK-4538,1 53430U 22097AU  24074.09840983  .00001047  00000-0  83843-4 0  9995,2 53430  53.2173 121.4654 0001592  99.8144 260.3028 15.08838045 89227,6917.886,95.438,540.853,538.65,0.0
53430.0,STARLINK-4538,PAYLOAD,2024-03-14 10:18:38,15.08838047,0.0001587,53.2173,119.9787,97.786,262.3313,8.3135e-05,1.035e-05,0.0,0 STARLINK-4538,1 53430U 22097AU  24074.42961060  .00001035  00000-0  83135-4 0  9993,2 53430  53.2173 119.9787 0001587  97.7860 262.3313 15.08838047 88817,6917.886,95.438,540.849,538.653,0.0
53430.0,STARLINK-4538,PAYLOAD,2024-03-15 11:44:48,15.08833693,0.00014,53.2169,115.2206,96.2111,263.9041,0.00014775,2.064e-05,0.0,0 STARLINK-4538,1 53430U 22097AU  24075.48945231  .00002064  00000-0  14775-3 0  9998,2 53430  53.2169 115.2206 0001400  96.2111 263.9041 15.08833693 88978,6917.9,95.438,540.733,538.796,0.0
53430.0,STARLINK-4538,PAYLOAD,2024-03-16 10:00:12,15.08838271,0.0001413,53.2161,111.0559,96.6215,263.4938,3.4257e-05,2.57e-06,0.0,0 STARLINK-4538,1 53430U 22097AU  24076.41681331  .00000257  00000-0  34257-4 0  9990,2 53430  53.2161 111.0559 0001413  96.6215 263.4938 15.08838271 89572,6917.886,95.438,540.728,538.773,0.0
53430.0,STARLINK-4538,PAYLOAD,2024-03-17 08:15:36,15.08843399,0.0001606,53.2174,106.8853,79.0718,281.0455,9.5181e-05,1.227e-05,0.0,0 STARLINK-4538,1 53430U 22097AU  24077.34416847  .00001227  00000-0  95181-4 0  9992,2 53430  53.2174 106.8853 0001606  79.0718 281.0455 15.08843399 89254,6917.87,95.437,540.846,538.624,0.0
53430.0,STARLINK-4538,PAYLOAD,2024-03-18 11:17:09,15.08841113,0.0001366,53.2158,101.836,95.0266,265.0882,4.8812e-05,4.89e-06,0.0,0 STARLINK-4538,1 53430U 22097AU  24078.47025004  .00000489  00000-0  48812-4 0  9996,2 53430  53.2158 101.8360 0001366  95.0266 265.0882 15.08841113 89420,6917.877,95.437,540.687,538.797,0.0
53430.0,STARLINK-4538,PAYLOAD,2024-03-19 07:57:10,15.08839474,0.0001482,53.2164,97.9686,105.8701,254.2455,2.2543e-05,7.1e-07,0.0,0 STARLINK-4538,1 53430U 22097AU  24079.33137167  .00000071  00000-0  22543-4 0  9996,2 53430  53.2164  97.9686 0001482 105.8701 254.2455 15.08839474 90016,6917.882,95.438,540.772,538.722,0.0
53430.0,STARLINK-4538,PAYLOAD,2024-03-20 07:47:57,15.08836821,0.000148,53.2167,93.5079,107.4482,252.6672,4.7894e-05,4.74e-06,0.0,0 STARLINK-4538,1 53430U 22097AU  24080.32497434  .00000474  00000-0  47894-4 0  9996,2 53430  53.2167  93.5079 0001480 107.4482 252.6672 15.08836821 89709,6917.89,95.438,540.779,538.731,0.0
53430.0,STARLINK-4538,PAYLOAD,2024-03-20 10:58:44,15.08836957,0.0001486,53.2167,92.9136,107.4976,252.6179,4.7085e-05,4.61e-06,0.0,0 STARLINK-4538,1 53430U 22097AU  24080.45745502  .00000461  00000-0  47085-4 0  9990,2 53430  53.2167  92.9136 0001486 107.4976 252.6179 15.08836957 90186,6917.89,95.438,540.783,538.727,0.0
53430.0,STARLINK-4538,PAYLOAD,2024-03-21 04:28:01,15.08806965,0.0001157,53.2166,89.6426,93.4118,266.7006,-0.00018678,-3.256e-05,0.0,0 STARLINK-4538,1 53430U 22097AU  24081.18612362 -.00003256  00000-0 -18678-3 0  9990,2 53430  53.2166  89.6426 0001157  93.4118 266.7006 15.08806965 89838,6917.981,95.44,540.647,539.046,0.0
53430.0,STARLINK-4538,PAYLOAD,2024-03-21 07:38:47,15.08809303,0.0001283,53.2164,89.0504,97.321,262.7928,-0.000147,-2.625e-05,0.0,0 STARLINK-4538,1 53430U 22097AU  24081.31860355 -.00002625  00000-0 -14700-3 0  9993,2 53430  53.2164  89.0504 0001283  97.3210 262.7928 15.08809303 90316,6917.974,95.439,540.727,538.952,0.0
53430.0,STARLINK-4538,PAYLOAD,2024-03-21 17:11:06,15.08816819,0.0001269,53.2169,87.2644,105.9684,254.1448,-7.3236e-05,-1.452e-05,0.0,0 STARLINK-4538,1 53430U 22097AU  24081.71604441 -.00001452  00000-0 -73236-4 0  9996,2 53430  53.2169  87.2644 0001269 105.9684 254.1448 15.08816819 89917,6917.951,95.439,540.694,538.938,0.0
53430.0,STARLINK-4538,PAYLOAD,2024-03-22 04:18:46,15.08838565,0.0001248,53.2166,85.1814,99.743,260.3704,0.0001319,1.812e-05,0.0,0 STARLINK-4538,1 53430U 22097AU  24082.17970651  .00001812  00000-0  13190-3 0  9996,2 53430  53.2166  85.1814 0001248  99.7430 260.3704 15.08838565 89989,6917.885,95.438,540.613,538.886,0.0
